QIANFAN-193             
1 69411U 26125L   26193.72828478 -.01791715  00000+0 -13519+1 0  9995
2 69411  88.9941 277.5469 0021710  99.4208 260.9426 13.98346421  5325
QIANFAN-194             
1 69412U 26125M   26193.86655769 -.01805814  00000+0 -13682+1 0  9999
2 69412  88.9946 277.5305 0022080  88.4629 271.9078 13.98143311  5335
QIANFAN-195             
1 69413U 26125N   26193.77333749 -.01853954  00000+0 -12979+1 0  9997
2 69413  88.9945 277.5351 0014877  84.7534 275.5343 14.02117835  5338
QIANFAN-196             
1 69414U 26125P   26193.77290713 -.02106990  00000+0 -14823+1 0  9993
2 69414  88.9938 277.5355 0015081 104.1293 256.1565 14.02360636  5332
QIANFAN-197             
1 69415U 26125Q   26193.76481746 -.01942958  00000+0 -13763+1 0  9994
2 69415  88.9944 277.5335 0012928  86.2091 274.0567 14.01651589  5320
QIANFAN-198             
1 69416U 26125R   26193.77531049 -.01908156  00000+0 -13741+1 0  9996
2 69416  88.9941 277.5349 0015337  86.6401 273.6532 14.00636460  5337
QIANFAN-199             
1 69417U 26125S   26193.73708964 -.02030254  00000+0 -13602+1 0  9997
2 69417  88.9952 277.5300 0015581  97.1225 263.1729 14.04930750  5334
QIANFAN-200             
1 69418U 26125T   26193.75220560 -.01914991  00000+0 -14128+1 0  9993
2 69418  88.9938 277.5505 0019860  89.2141 271.1313 13.99247486  5326
