{"fetched_at":"2026-07-13T18:16:35.050Z","source":"https://celestrak.org/NORAD/elements/gp.php?GROUP=qianfan&FORMAT=JSON","constellation":"qianfan","records":[{"OBJECT_NAME":"QIANFAN-193","OBJECT_ID":"2026-125L","EPOCH":"2026-07-12T17:28:43.804992","CLASSIFICATION_TYPE":"U","MEAN_MOTION":13.98346421,"ECCENTRICITY":0.00217106,"INCLINATION":88.9941,"RA_OF_ASC_NODE":277.5469,"ARG_OF_PERICENTER":99.4208,"MEAN_ANOMALY":260.9426,"EPHEMERIS_TYPE":0,"NORAD_CAT_ID":69411,"ELEMENT_SET_NO":999,"REV_AT_EPOCH":532,"BSTAR":-1.3519233,"MEAN_MOTION_DOT":-0.01791715,"MEAN_MOTION_DDOT":0},{"OBJECT_NAME":"QIANFAN-194","OBJECT_ID":"2026-125M","EPOCH":"2026-07-12T20:47:50.584416","CLASSIFICATION_TYPE":"U","MEAN_MOTION":13.98143311,"ECCENTRICITY":0.00220808,"INCLINATION":88.9946,"RA_OF_ASC_NODE":277.5305,"ARG_OF_PERICENTER":88.4629,"MEAN_ANOMALY":271.9078,"EPHEMERIS_TYPE":0,"NORAD_CAT_ID":69412,"ELEMENT_SET_NO":999,"REV_AT_EPOCH":533,"BSTAR":-1.3681648,"MEAN_MOTION_DOT":-0.01805814,"MEAN_MOTION_DDOT":0},{"OBJECT_NAME":"QIANFAN-195","OBJECT_ID":"2026-125N","EPOCH":"2026-07-12T18:33:36.359136","CLASSIFICATION_TYPE":"U","MEAN_MOTION":14.02117835,"ECCENTRICITY":0.00148776,"INCLINATION":88.9945,"RA_OF_ASC_NODE":277.5351,"ARG_OF_PERICENTER":84.7534,"MEAN_ANOMALY":275.5343,"EPHEMERIS_TYPE":0,"NORAD_CAT_ID":69413,"ELEMENT_SET_NO":999,"REV_AT_EPOCH":533,"BSTAR":-1.2979386,"MEAN_MOTION_DOT":-0.01853954,"MEAN_MOTION_DDOT":0},{"OBJECT_NAME":"QIANFAN-196","OBJECT_ID":"2026-125P","EPOCH":"2026-07-12T18:32:59.176032","CLASSIFICATION_TYPE":"U","MEAN_MOTION":14.02360636,"ECCENTRICITY":0.00150811,"INCLINATION":88.9938,"RA_OF_ASC_NODE":277.5355,"ARG_OF_PERICENTER":104.1293,"MEAN_ANOMALY":256.1565,"EPHEMERIS_TYPE":0,"NORAD_CAT_ID":69414,"ELEMENT_SET_NO":999,"REV_AT_EPOCH":533,"BSTAR":-1.4822622,"MEAN_MOTION_DOT":-0.0210699,"MEAN_MOTION_DDOT":0},{"OBJECT_NAME":"QIANFAN-197","OBJECT_ID":"2026-125Q","EPOCH":"2026-07-12T18:21:20.228544","CLASSIFICATION_TYPE":"U","MEAN_MOTION":14.01651589,"ECCENTRICITY":0.00129289,"INCLINATION":88.9944,"RA_OF_ASC_NODE":277.5335,"ARG_OF_PERICENTER":86.2091,"MEAN_ANOMALY":274.0567,"EPHEMERIS_TYPE":0,"NORAD_CAT_ID":69415,"ELEMENT_SET_NO":999,"REV_AT_EPOCH":532,"BSTAR":-1.3763468,"MEAN_MOTION_DOT":-0.01942958,"MEAN_MOTION_DDOT":0},{"OBJECT_NAME":"QIANFAN-198","OBJECT_ID":"2026-125R","EPOCH":"2026-07-12T18:36:26.826336","CLASSIFICATION_TYPE":"U","MEAN_MOTION":14.0063646,"ECCENTRICITY":0.0015337,"INCLINATION":88.9941,"RA_OF_ASC_NODE":277.5349,"ARG_OF_PERICENTER":86.6401,"MEAN_ANOMALY":273.6532,"EPHEMERIS_TYPE":0,"NORAD_CAT_ID":69416,"ELEMENT_SET_NO":999,"REV_AT_EPOCH":533,"BSTAR":-1.3741411,"MEAN_MOTION_DOT":-0.01908156,"MEAN_MOTION_DDOT":0},{"OBJECT_NAME":"QIANFAN-199","OBJECT_ID":"2026-125S","EPOCH":"2026-07-12T17:41:24.544896","CLASSIFICATION_TYPE":"U","MEAN_MOTION":14.0493075,"ECCENTRICITY":0.0015581,"INCLINATION":88.9952,"RA_OF_ASC_NODE":277.53,"ARG_OF_PERICENTER":97.1225,"MEAN_ANOMALY":263.1729,"EPHEMERIS_TYPE":0,"NORAD_CAT_ID":69417,"ELEMENT_SET_NO":999,"REV_AT_EPOCH":533,"BSTAR":-1.3602485,"MEAN_MOTION_DOT":-0.02030254,"MEAN_MOTION_DDOT":0},{"OBJECT_NAME":"QIANFAN-200","OBJECT_ID":"2026-125T","EPOCH":"2026-07-12T18:03:10.563840","CLASSIFICATION_TYPE":"U","MEAN_MOTION":13.99247486,"ECCENTRICITY":0.00198608,"INCLINATION":88.9938,"RA_OF_ASC_NODE":277.5505,"ARG_OF_PERICENTER":89.2141,"MEAN_ANOMALY":271.1313,"EPHEMERIS_TYPE":0,"NORAD_CAT_ID":69418,"ELEMENT_SET_NO":999,"REV_AT_EPOCH":532,"BSTAR":-1.4127715,"MEAN_MOTION_DOT":-0.01914991,"MEAN_MOTION_DDOT":0}]}
